[
    {
        "CCSDS_OMM_VERS": "3.0",
        "COMMENT": "GENERATED VIA SPACE-TRACK.ORG API",
        "CREATION_DATE": "2025-05-03T17:28:03",
        "ORIGINATOR": "18 SPCS",
        "OBJECT_NAME": "BEIDOU 3 M26",
        "OBJECT_ID": "2023-207B",
        "CENTER_NAME": "EARTH",
        "REF_FRAME": "TEME",
        "TIME_SYSTEM": "UTC",
        "MEAN_ELEMENT_THEORY": "SGP4",
        "EPOCH": "2025-05-03T09:36:54.601344",
        "MEAN_MOTION": "1.86231592",
        "ECCENTRICITY": "0.00048460",
        "INCLINATION": "55.3891",
        "RA_OF_ASC_NODE": "76.1535",
        "ARG_OF_PERICENTER": "294.5763",
        "MEAN_ANOMALY": "65.3430",
        "EPHEMERIS_TYPE": "0",
        "CLASSIFICATION_TYPE": "U",
        "NORAD_CAT_ID": "58655",
        "ELEMENT_SET_NO": "999",
        "REV_AT_EPOCH": "919",
        "BSTAR": "0.00000000000000",
        "MEAN_MOTION_DOT": "-0.00000016",
        "MEAN_MOTION_DDOT": "0.0000000000000",
        "SEMIMAJOR_AXIS": "27906.129",
        "PERIOD": "773.231",
        "APOAPSIS": "21541.518",
        "PERIAPSIS": "21514.471",
        "OBJECT_TYPE": "PAYLOAD",
        "RCS_SIZE": "LARGE",
        "COUNTRY_CODE": "PRC",
        "LAUNCH_DATE": "2023-12-26",
        "SITE": "XSC",
        "DECAY_DATE": null,
        "FILE": "4717971",
        "GP_ID": "286770989",
        "TLE_LINE0": "0 BEIDOU 3 M26",
        "TLE_LINE1": "1 58655U 23207B   25123.40063196 -.00000016  00000-0  00000-0 0  9993",
        "TLE_LINE2": "2 58655  55.3891  76.1535 0004846 294.5763  65.3430  1.86231592  9194"
    }
]